CTC1_L_00164001-01
1 10000U 22163XC  26075.70031250  .00000000  00000+0  00000-0 0  9992
2 10000  75.0000   0.0000 0000000   0.0000   0.0000 13.98210060    16
CTC1_L_00164001-02
1 10001U 25751CG  26075.70031250  .00000000  00000+0  00000-0 0  9999
2 10001  75.0000   0.0000 0000000   0.0000  90.0000 13.98210060    16
CTC1_L_00164001-03
1 10002U 25422ST  26075.70031250  .00000000  00000+0  00000-0 0  9995
2 10002  75.0000   0.0000 0000000   0.0000 180.0000 13.98210060    17
CTC1_L_00164001-04
1 10003U 23762FI  26075.70031250  .00000000  00000+0  00000-0 0  9991
2 10003  75.0000   0.0000 0000000   0.0000 270.0000 13.98210060    18
CTC1_L_00164002-01
1 10004U 24194ZD  26075.70031250  .00000000  00000+0  00000-0 0  9992
2 10004  75.0000  12.0000 0000000   0.0000  12.0000 13.98210060    16
CTC1_L_00164002-02
1 10005U 23514XN  26075.70031250  .00000000  00000+0  00000-0 0  9998
2 10005  75.0000  12.0000 0000000   0.0000 102.0000 13.98210060    17
CTC1_L_00164002-03
1 10006U 22954XF  26075.70031250  .00000000  00000+0  00000-0 0  9996
2 10006  75.0000  12.0000 0000000   0.0000 192.0000 13.98210060    17
CTC1_L_00164002-04
1 10007U 24869JL  26075.70031250  .00000000  00000+0  00000-0 0  9994
2 10007  75.0000  12.0000 0000000   0.0000 282.0000 13.98210060    18
CTC1_L_00164003-01
1 10008U 26912TN  26075.70031250  .00000000  00000+0  00000-0 0  9996
2 10008  75.0000  24.0000 0000000   0.0000  24.0000 13.98210060    16
CTC1_L_00164003-02
1 10009U 22699FK  26075.70031250  .00000000  00000+0  00000-0 0  9995
2 10009  75.0000  24.0000 0000000   0.0000 114.0000 13.98210060    17
CTC1_L_00164003-03
1 10010U 24596WY  26075.70031250  .00000000  00000+0  00000-0 0  9995
2 10010  75.0000  24.0000 0000000   0.0000 204.0000 13.98210060    19
CTC1_L_00164003-04
1 10011U 24295LF  26075.70031250  .00000000  00000+0  00000-0 0  9992
2 10011  75.0000  24.0000 0000000   0.0000 294.0000 13.98210060    19
CTC1_L_00164004-01
1 10012U 23765QQ  26075.70031250  .00000000  00000+0  00000-0 0  9994
2 10012  75.0000  36.0000 0000000   0.0000  36.0000 13.98210060    17
CTC1_L_00164004-02
1 10013U 25813DR  26075.70031250  .00000000  00000+0  00000-0 0  9991
2 10013  75.0000  36.0000 0000000   0.0000 126.0000 13.98210060    18
CTC1_L_00164004-03
1 10014U 23981VH  26075.70031250  .00000000  00000+0  00000-0 0  9996
2 10014  75.0000  36.0000 0000000   0.0000 216.0000 13.98210060    19
CTC1_L_00164004-04
1 10015U 24563SV  26075.70031250  .00000000  00000+0  00000-0 0  9994
2 10015  75.0000  36.0000 0000000   0.0000 306.0000 13.98210060    10
CTC1_L_00164005-01
1 10016U 26615EQ  26075.70031250  .00000000  00000+0  00000-0 0  9995
2 10016  75.0000  48.0000 0000000   0.0000  48.0000 13.98210060    17
CTC1_L_00164005-02
1 10017U 26232WN  26075.70031250  .00000000  00000+0  00000-0 0  9991
2 10017  75.0000  48.0000 0000000   0.0000 138.0000 13.98210060    18
CTC1_L_00164005-03
1 10018U 26822YU  26075.70031250  .00000000  00000+0  00000-0 0  9997
2 10018  75.0000  48.0000 0000000   0.0000 228.0000 13.98210060    19
CTC1_L_00164005-04
1 10019U 25264OD  26075.70031250  .00000000  00000+0  00000-0 0  9997
2 10019  75.0000  48.0000 0000000   0.0000 318.0000 13.98210060    10
CTC1_L_00164006-01
1 10020U 26177TZ  26075.70031250  .00000000  00000+0  00000-0 0  9993
2 10020  75.0000  60.0000 0000000   0.0000  60.0000 13.98210060    10
CTC1_L_00164006-02
1 10021U 24088BB  26075.70031250  .00000000  00000+0  00000-0 0  9993
2 10021  75.0000  60.0000 0000000   0.0000 150.0000 13.98210060    11
CTC1_L_00164006-03
1 10022U 26659HP  26075.70031250  .00000000  00000+0  00000-0 0  9990
2 10022  75.0000  60.0000 0000000   0.0000 240.0000 13.98210060    12
CTC1_L_00164006-04
1 10023U 24809IV  26075.70031250  .00000000  00000+0  00000-0 0  9996
2 10023  75.0000  60.0000 0000000   0.0000 330.0000 13.98210060    13
CTC1_L_00164007-01
1 10024U 26811JO  26075.70031250  .00000000  00000+0  00000-0 0  9992
2 10024  75.0000  72.0000 0000000   0.0000  72.0000 13.98210060    10
CTC1_L_00164007-02
1 10025U 25105X   26075.70031250  .00000000  00000+0  00000-0 0  9998
2 10025  75.0000  72.0000 0000000   0.0000 162.0000 13.98210060    11
CTC1_L_00164007-03
1 10026U 22934XD  26075.70031250  .00000000  00000+0  00000-0 0  9996
2 10026  75.0000  72.0000 0000000   0.0000 252.0000 13.98210060    12
CTC1_L_00164007-04
1 10027U 23978WH  26075.70031250  .00000000  00000+0  00000-0 0  9996
2 10027  75.0000  72.0000 0000000   0.0000 342.0000 13.98210060    13
CTC1_L_00164008-01
1 10028U 25881BA  26075.70031250  .00000000  00000+0  00000-0 0  9992
2 10028  75.0000  84.0000 0000000   0.0000  84.0000 13.98210060    10
CTC1_L_00164008-02
1 10029U 25249RX  26075.70031250  .00000000  00000+0  00000-0 0  9991
2 10029  75.0000  84.0000 0000000   0.0000 174.0000 13.98210060    11
CTC1_L_00164008-03
1 10030U 22398FL  26075.70031250  .00000000  00000+0  00000-0 0  9995
2 10030  75.0000  84.0000 0000000   0.0000 264.0000 13.98210060    13
CTC1_L_00164008-04
1 10031U 24064RC  26075.70031250  .00000000  00000+0  00000-0 0  9998
2 10031  75.0000  84.0000 0000000   0.0000 354.0000 13.98210060    14
CTC1_L_00164009-01
1 10032U 24432NJ  26075.70031250  .00000000  00000+0  00000-0 0  9998
2 10032  75.0000  96.0000 0000000   0.0000  96.0000 13.98210060    11
CTC1_L_00164009-02
1 10033U 25288EU  26075.70031250  .00000000  00000+0  00000-0 0  9999
2 10033  75.0000  96.0000 0000000   0.0000 186.0000 13.98210060    12
CTC1_L_00164009-03
1 10034U 25211PJ  26075.70031250  .00000000  00000+0  00000-0 0  9996
2 10034  75.0000  96.0000 0000000   0.0000 276.0000 13.98210060    13
CTC1_L_00164009-04
1 10035U 23136VZ  26075.70031250  .00000000  00000+0  00000-0 0  9991
2 10035  75.0000  96.0000 0000000   0.0000   6.0000 13.98210060    15
CTC1_L_00164010-01
1 10036U 24600JX  26075.70031250  .00000000  00000+0  00000-0 0  9999
2 10036  75.0000 108.0000 0000000   0.0000 108.0000 13.98210060    13
CTC1_L_00164010-02
1 10037U 25341FP  26075.70031250  .00000000  00000+0  00000-0 0  9993
2 10037  75.0000 108.0000 0000000   0.0000 198.0000 13.98210060    13
CTC1_L_00164010-03
1 10038U 26702LN  26075.70031250  .00000000  00000+0  00000-0 0  9996
2 10038  75.0000 108.0000 0000000   0.0000 288.0000 13.98210060    14
CTC1_L_00164010-04
1 10039U 23325MM  26075.70031250  .00000000  00000+0  00000-0 0  9995
2 10039  75.0000 108.0000 0000000   0.0000  18.0000 13.98210060    16
CTC1_L_00164011-01
1 10040U 26739HC  26075.70031250  .00000000  00000+0  00000-0 0  9999
2 10040  75.0000 120.0000 0000000   0.0000 120.0000 13.98210060    16
CTC1_L_00164011-02
1 10041U 26865DS  26075.70031250  .00000000  00000+0  00000-0 0  9990
2 10041  75.0000 120.0000 0000000   0.0000 210.0000 13.98210060    17
CTC1_L_00164011-03
1 10042U 22049NU  26075.70031250  .00000000  00000+0  00000-0 0  9991
2 10042  75.0000 120.0000 0000000   0.0000 300.0000 13.98210060    18
CTC1_L_00164011-04
1 10043U 23518SE  26075.70031250  .00000000  00000+0  00000-0 0  9994
2 10043  75.0000 120.0000 0000000   0.0000  30.0000 13.98210060    19
CTC1_L_00164012-01
1 10044U 23016BO  26075.70031250  .00000000  00000+0  00000-0 0  9998
2 10044  75.0000 132.0000 0000000   0.0000 132.0000 13.98210060    16
CTC1_L_00164012-02
1 10045U 24069NS  26075.70031250  .00000000  00000+0  00000-0 0  9998
2 10045  75.0000 132.0000 0000000   0.0000 222.0000 13.98210060    17
CTC1_L_00164012-03
1 10046U 23593IW  26075.70031250  .00000000  00000+0  00000-0 0  9990
2 10046  75.0000 132.0000 0000000   0.0000 312.0000 13.98210060    18
CTC1_L_00164012-04
1 10047U 23245EI  26075.70031250  .00000000  00000+0  00000-0 0  9995
2 10047  75.0000 132.0000 0000000   0.0000  42.0000 13.98210060    19
CTC1_L_00164013-01
1 10048U 25604HD  26075.70031250  .00000000  00000+0  00000-0 0  9997
2 10048  75.0000 144.0000 0000000   0.0000 144.0000 13.98210060    16
CTC1_L_00164013-02
1 10049U 23020WE  26075.70031250  .00000000  00000+0  00000-0 0  9998
2 10049  75.0000 144.0000 0000000   0.0000 234.0000 13.98210060    17
CTC1_L_00164013-03
1 10050U 25523AV  26075.70031250  .00000000  00000+0  00000-0 0  9990
2 10050  75.0000 144.0000 0000000   0.0000 324.0000 13.98210060    19
CTC1_L_00164013-04
1 10051U 23047PJ  26075.70031250  .00000000  00000+0  00000-0 0  9990
2 10051  75.0000 144.0000 0000000   0.0000  54.0000 13.98210060    10
CTC1_L_00164014-01
1 10052U 23901CA  26075.70031250  .00000000  00000+0  00000-0 0  9990
2 10052  75.0000 156.0000 0000000   0.0000 156.0000 13.98210060    17
CTC1_L_00164014-02
1 10053U 24923HH  26075.70031250  .00000000  00000+0  00000-0 0  9996
2 10053  75.0000 156.0000 0000000   0.0000 246.0000 13.98210060    18
CTC1_L_00164014-03
1 10054U 26121QM  26075.70031250  .00000000  00000+0  00000-0 0  9999
2 10054  75.0000 156.0000 0000000   0.0000 336.0000 13.98210060    19
CTC1_L_00164014-04
1 10055U 24996AQ  26075.70031250  .00000000  00000+0  00000-0 0  9998
2 10055  75.0000 156.0000 0000000   0.0000  66.0000 13.98210060    10
CTC1_L_00164015-01
1 10056U 24509PL  26075.70031250  .00000000  00000+0  00000-0 0  9999
2 10056  75.0000 168.0000 0000000   0.0000 168.0000 13.98210060    17
CTC1_L_00164015-02
1 10057U 24458YS  26075.70031250  .00000000  00000+0  00000-0 0  9993
2 10057  75.0000 168.0000 0000000   0.0000 258.0000 13.98210060    18
CTC1_L_00164015-03
1 10058U 22709PO  26075.70031250  .00000000  00000+0  00000-0 0  9991
2 10058  75.0000 168.0000 0000000   0.0000 348.0000 13.98210060    19
CTC1_L_00164015-04
1 10059U 23699ZZ  26075.70031250  .00000000  00000+0  00000-0 0  9991
2 10059  75.0000 168.0000 0000000   0.0000  78.0000 13.98210060    10
CTC1_L_00164016-01
1 10060U 22215FM  26075.70031250  .00000000  00000+0  00000-0 0  9996
2 10060  75.0000 180.0000 0000000   0.0000 180.0000 13.98210060    10
CTC1_L_00164016-02
1 10061U 23086BA  26075.70031250  .00000000  00000+0  00000-0 0  9994
2 10061  75.0000 180.0000 0000000   0.0000 270.0000 13.98210060    11
